$$SOE
2460154.500000000, A.D. 2023-Jul-29 00:00:00.0000, -3.027777088184174E+08, -2.897341497302450E+08, 1.140744826639345E+08,
2460161.500000000, A.D. 2023-Aug-05 00:00:00.0000, -2.954422682387258E+08, -2.962449865586256E+08, 1.143227691360833E+08,
2460168.500000000, A.D. 2023-Aug-12 00:00:00.0000, -2.879311095622990E+08, -3.025795764494842E+08, 1.145030366353548E+08,
2460175.500000000, A.D. 2023-Aug-19 00:00:00.0000, -2.802479539049472E+08, -3.087333640874238E+08, 1.146148797088374E+08,
2460182.500000000, A.D. 2023-Aug-26 00:00:00.0000, -2.723966177649063E+08, -3.147018186273643E+08, 1.146579139125209E+08,
2460189.500000000, A.D. 2023-Sep-02 00:00:00.0000, -2.643810154813100E+08, -3.204804342238042E+08, 1.146317763341343E+08,
2460196.500000000, A.D. 2023-Sep-09 00:00:00.0000, -2.562051617785757E+08, -3.260647308150350E+08, 1.145361261527606E+08,
2460203.500000000, A.D. 2023-Sep-16 00:00:00.0000, -2.478731742266617E+08, -3.314502552280183E+08, 1.143706452165772E+08,
2460210.500000000, A.D. 2023-Sep-23 00:00:00.0000, -2.393892751988637E+08, -3.366325823252162E+08, 1.141350386255092E+08,
2460217.500000000, A.D. 2023-Sep-30 00:00:00.0000, -2.307577936643763E+08, -3.416073150108314E+08, 1.138290354487109E+08,
2460224.500000000, A.D. 2023-Oct-07 00:00:00.0000, -2.219831691660572E+08, -3.463700836476625E+08, 1.134523897495915E+08,
2460231.500000000, A.D. 2023-Oct-14 00:00:00.0000, -2.130699569396256E+08, -3.509165482077260E+08, 1.130048815537940E+08,
2460238.500000000, A.D. 2023-Oct-21 00:00:00.0000, -2.040228309426259E+08, -3.552424015654926E+08, 1.124863175974927E+08,
2460245.500000000, A.D. 2023-Oct-28 00:00:00.0000, -1.948465862145615E+08, -3.593433716845826E+08, 1.118965321738980E+08,
2460252.500000000, A.D. 2023-Nov-04 00:00:00.0000, -1.855461418141343E+08, -3.632152234786041E+08, 1.112353881315688E+08,
2460259.500000000, A.D. 2023-Nov-11 00:00:00.0000, -1.761265441506699E+08, -3.668537609566848E+08, 1.105027779607334E+08,
2460266.500000000, A.D. 2023-Nov-18 00:00:00.0000, -1.665929704837688E+08, -3.702548297297181E+08, 1.096986249437220E+08,
2460273.500000000, A.D. 2023-Nov-25 00:00:00.0000, -1.569507325111854E+08, -3.734143198677627E+08, 1.088228843665147E+08,
2460280.500000000, A.D. 2023-Dec-02 00:00:00.0000, -1.472052800092251E+08, -3.763281691336736E+08, 1.078755447900929E+08,
2460287.500000000, A.D. 2023-Dec-09 00:00:00.0000, -1.373622044397666E+08, -3.789923666660612E+08, 1.068566293718066E+08,
2460294.500000000, A.D. 2023-Dec-16 00:00:00.0000, -1.274272422273096E+08, -3.814029571134233E+08, 1.057661972132925E+08,
2460301.500000000, A.D. 2023-Dec-23 00:00:00.0000, -1.174062773473458E+08, -3.835560445466812E+08, 1.046043447607362E+08,
2460308.500000000, A.D. 2023-Dec-30 00:00:00.0000, -1.073053445546014E+08, -3.854477951154537E+08, 1.033712074672475E+08,
2460315.500000000, A.D. 2024-Jan-06 00:00:00.0000, -9.713063500973700E+07, -3.870744408234092E+08, 1.020669616875278E+08,
2460322.500000000, A.D. 2024-Jan-13 00:00:00.0000, -8.688850111593853E+07, -3.884322862461637E+08, 1.006918263670669E+08,
2460329.500000000, A.D. 2024-Jan-20 00:00:00.0000, -7.658545932553874E+07, -3.895177151254794E+08, 9.924606466744107E+07,
2460336.500000000, A.D. 2024-Jan-27 00:00:00.0000, -6.622819292828110E+07, -3.903271962054724E+08, 9.772998576855981E+07,
2460343.500000000, A.D. 2024-Feb-03 00:00:00.0000, -5.582355523092709E+07, -3.908572892766216E+08, 9.614394681043401E+07,
2460350.500000000, A.D. 2024-Feb-10 00:00:00.0000, -4.537857283058595E+07, -3.911046517351646E+08, 9.448835492526579E+07,
2460357.500000000, A.D. 2024-Feb-17 00:00:00.0000, -3.490044882071958E+07, -3.910660456651871E+08, 9.276366934668000E+07,
2460364.500000000, A.D. 2024-Feb-24 00:00:00.0000, -2.439656586835948E+07, -3.907383454426375E+08, 9.097040359173158E+07,
2460371.500000000, A.D. 2024-Mar-02 00:00:00.0000, -1.387448910367631E+07, -3.901185459075028E+08, 8.910912770750624E+07,
2460378.500000000, A.D. 2024-Mar-09 00:00:00.0000, -3.341968649678085E+06, -3.892037711816223E+08, 8.718047056188950E+07,
2460385.500000000, A.D. 2024-Mar-16 00:00:00.0000, 7.193058639581175E+06, -3.879912839510961E+08, 8.518512215661211E+07,
2460392.500000000, A.D. 2024-Mar-23 00:00:00.0000, 1.772246816644084E+07, -3.864784941213156E+08, 8.312383606141795E+07,
2460399.500000000, A.D. 2024-Mar-30 00:00:00.0000, 2.823794510029624E+07, -3.846629668867018E+08, 8.099743217056088E+07,
2460406.500000000, A.D. 2024-Apr-06 00:00:00.0000, 3.873098070900789E+07, -3.825424335947434E+08, 7.880679947893003E+07,
2460413.500000000, A.D. 2024-Apr-13 00:00:00.0000, 4.919287110762191E+07, -3.801148045784069E+08, 7.655289861541201E+07,
2460420.500000000, A.D. 2024-Apr-20 00:00:00.0000, 5.961471752073652E+07, -3.773781812891917E+08, 7.423676443369932E+07,
2460427.500000000, A.D. 2024-Apr-27 00:00:00.0000, 6.998742659325491E+07, -3.743308682976500E+08, 7.185950874641435E+07,
2460434.500000000, A.D. 2024-May-04 00:00:00.0000, 8.030171089300615E+07, -3.709713858666332E+08, 6.942232312816902E+07,
2460441.500000000, A.D. 2024-May-11 00:00:00.0000, 9.054808990266949E+07, -3.672984831974641E+08, 6.692648174726166E+07,
2460448.500000000, A.D. 2024-May-18 00:00:00.0000, 1.007168916453970E+08, -3.633111523215920E+08, 6.437334420862424E+07,
2460455.500000000, A.D. 2024-May-25 00:00:00.0000, 1.107982550350042E+08, -3.590086426341543E+08, 6.176435839189619E+07,
2460462.500000000, A.D. 2024-Jun-01 00:00:00.0000, 1.207821330808930E+08, -3.543904761115592E+08, 5.910106325990972E+07,
2460469.500000000, A.D. 2024-Jun-08 00:00:00.0000, 1.306582972678025E+08, -3.494564632166580E+08, 5.638509159765713E+07,
2460476.500000000, A.D. 2024-Jun-15 00:00:00.0000, 1.404163435856380E+08, -3.442067189222158E+08, 5.361817267280889E+07,
2460483.500000000, A.D. 2024-Jun-22 00:00:00.0000, 1.500456992809554E+08, -3.386416776464322E+08, 5.080213498690194E+07,
2460490.500000000, A.D. 2024-Jun-29 00:00:00.0000, 1.595356282861953E+08, -3.327621088806281E+08, 4.793890914085691E+07,
2460497.500000000, A.D. 2024-Jul-06 00:00:00.0000, 1.688752380515868E+08, -3.265691359295033E+08, 4.503053034547354E+07,
2460504.500000000, A.D. 2024-Jul-13 00:00:00.0000, 1.780534898107772E+08, -3.200642548819844E+08, 4.207914060256150E+07,
2460511.500000000, A.D. 2024-Jul-20 00:00:00.0000, 1.870592103752715E+08, -3.132493525975609E+08, 3.908699080433533E+07,
2460518.500000000, A.D. 2024-Jul-27 00:00:00.0000, 1.958811048803272E+08, -3.061267245891816E+08, 3.605644270166798E+07,
2460525.500000000, A.D. 2024-Aug-03 00:00:00.0000, 2.045077708321413E+08, -2.986990930864370E+08, 3.298997065193722E+07,
2460532.500000000, A.D. 2024-Aug-10 00:00:00.0000, 2.129277136969400E+08, -2.909696251798506E+08, 2.989016309549926E+07,
2460539.500000000, A.D. 2024-Aug-17 00:00:00.0000, 2.211293641507213E+08, -2.829419509090300E+08, 2.675972372137156E+07,
2460546.500000000, A.D. 2024-Aug-24 00:00:00.0000, 2.291010970833896E+08, -2.746201811893684E+08, 2.360147227936932E+07,
2460553.500000000, A.D. 2024-Aug-31 00:00:00.0000, 2.368312525319248E+08, -2.660089254987032E+08, 2.041834498322220E+07,
2460560.500000000, A.D. 2024-Sep-07 00:00:00.0000, 2.443081589594942E+08, -2.571133090463378E+08, 1.721339444079407E+07,
2460567.500000000, A.D. 2024-Sep-14 00:00:00.0000, 2.515201590063214E+08, -2.479389882683647E+08, 1.398978914367394E+07,
2460574.500000000, A.D. 2024-Sep-21 00:00:00.0000, 2.584556357076551E+08, -2.384921640654296E+08, 1.075081269318879E+07,
2460581.500000000, A.D. 2024-Sep-28 00:00:00.0000, 2.651030386963796E+08, -2.287795958230380E+08, 7.499862499467298E+06,
2460588.500000000, A.D. 2024-Oct-05 00:00:00.0000, 2.714509140485430E+08, -2.188086160099049E+08, 4.240447573026627E+06,
2460595.500000000, A.D. 2024-Oct-12 00:00:00.0000, 2.774879373838795E+08, -2.085871421632222E+08, 9.761856433155984E+05,
2460602.500000000, A.D. 2024-Oct-19 00:00:00.0000, 2.832029484222982E+08, -1.981236863146397E+08, -2.289200297496572E+06,
2460609.500000000, A.D. 2024-Oct-26 00:00:00.0000, 2.885849868915563E+08, -1.874273624355859E+08, -5.551886125904515E+06,
2460616.500000000, A.D. 2024-Nov-02 00:00:00.0000, 2.936233299444013E+08, -1.765078918242934E+08, -8.807951464185931E+06,
2460623.500000000, A.D. 2024-Nov-09 00:00:00.0000, 2.983075310527260E+08, -1.653756061872175E+08, -1.205338534129654E+07,
2460630.500000000, A.D. 2024-Nov-16 00:00:00.0000, 3.026274602423114E+08, -1.540414481887051E+08, -1.528409266564800E+07,
2460637.500000000, A.D. 2024-Nov-23 00:00:00.0000, 3.065733455186548E+08, -1.425169692941813E+08, -1.849590153727438E+07,
2460644.500000000, A.D. 2024-Nov-30 00:00:00.0000, 3.101358154652664E+08, -1.308143247277604E+08, -2.168457143288132E+07,
2460651.500000000, A.D. 2024-Dec-07 00:00:00.0000, 3.133059431850473E+08, -1.189462649119705E+08, -2.484580226950505E+07,
2460658.500000000, A.D. 2024-Dec-14 00:00:00.0000, 3.160752906305795E+08, -1.069261219798573E+08, -2.797524417646687E+07,
2460665.500000000, A.D. 2024-Dec-21 00:00:00.0000, 3.184359507102716E+08, -9.476779245040271E+07, -3.106850784938668E+07,
2460672.500000000, A.D. 2024-Dec-28 00:00:00.0000, 3.203805888066013E+08, -8.248571891219904E+07, -3.412117588503502E+07,
2460679.500000000, A.D. 2025-Jan-04 00:00:00.0000, 3.219024859362262E+08, -7.009486824099541E+07, -3.712881510439737E+07,
2460686.500000000, A.D. 2025-Jan-11 00:00:00.0000, 3.229955813446745E+08, -5.761070462751068E+07, -4.008698951240754E+07,
2460693.500000000, A.D. 2025-Jan-18 00:00:00.0000, 3.236545132164858E+08, -4.504915831170383E+07, -4.299127382440418E+07,
2460700.500000000, A.D. 2025-Jan-25 00:00:00.0000, 3.238746573293714E+08, -3.242659051979014E+07, -4.583726754733948E+07,
2460707.500000000, A.D. 2025-Feb-01 00:00:00.0000, 3.236521634203203E+08, -1.975975470359917E+07, -4.862060955059312E+07,
2460714.500000000, A.D. 2025-Feb-08 00:00:00.0000, 3.229839889004686E+08, -7.065754182569029E+06, -5.133699303385181E+07,
2460721.500000000, A.D. 2025-Feb-15 00:00:00.0000, 3.218679295331436E+08, 5.638003619297091E+06, -5.398218078969329E+07,
$$EOE